#dP2020 10  8  0  0  0.00000000      96 __u+U ITR00 FIT  IAC
## 2126 345600.00000000   900.00000000 59130 0.0000000000000
+  121   C01C02C03C04C05C06C07C08C09C10C11C12C13C14C16C19C20
+        C21C22C23C24C25C26C27C28C29C30C32C33C34C35C36C37C39
+        C40C43C44C46C60E01E02E03E04E05E07E08E09E11E12E13E14
+        E15E18E19E21E24E25E26E27E30E31E33E36G01G02G03G04G05
+        G06G07G08G09G10G11G12G13G15G16G17G18G19G20G21G22G23
+        G24G25G26G27G28G29G30G31G32J01J02J03J07R01R02R03R04
+        R05R07R08R09R11R12R13R14R15R16R17R18R19R20R21R22R23
+        R24R26  0  0  0  0  0  0  0  0  0  0  0  0  0  0  0
++        12 12 13  0 12  8  8  8  8  8  7  7  8  8  8  8  8
++         7  7  8  7  7  7  8  8  8  8  8  8  8  7  8  8 10
++        10  9  9 11  0  4  4  4  5  4  5  5  5  4  4  5  4
++         5  4  4  5  4  4  4  5  5  5  5  4  4  3  3  3  3
++         3  4  4  3  4  4  3  4  4  3  3  3  0  4  4  4  4
++         4  3  3  4  3  3  4  3  3  9  8  9 13  6  5  5  5
++         5  5  5  5  6  6  6  5  5  6  5  5  6  6  6  6  5
++         5  8  0  0  0  0  0  0  0  0  0  0  0  0  0  0  0
%c M  cc GPS ccc cccc cccc cccc cccc ccccc ccccc ccccc ccccc
%c cc cc ccc ccc cccc cccc cccc cccc ccccc ccccc ccccc ccccc
%f  0.0000000  0.000000000  0.00000000000  0.000000000000000
%f  0.0000000  0.000000000  0.00000000000  0.000000000000000
%i    0    0    0    0      0      0      0      0         0
%i    0    0    0    0      0      0      0      0         0
/* INFORMATION & ANALYSIS CENTER (IAC)            RAPID DATA
/* S/V CLOCKS ARE ALIGNED TO GNSS TIME                      
/* G:C1WC2W R:C1PC2P E:C1XC5X C:C2IC6I J:C1CC2S             
/* PCV:IGS14_2118 OL/AL:FES2004  NONE     YN ORB:CoN CLK:CoN
*  2020 10 08  4 15  0.00000000
PC01 -34333.223401  24411.549365   -522.555994    -68.053367
PC02   4408.444884  41950.683845    980.042587    825.998095
PC03 -14849.561827  39467.440349   1038.998427    799.409170
PC04      0.000000      0.000000      0.000000 999999.999999
PC05  21918.873456  36012.161587   1169.625772    -65.095425
PC06 -15644.100806  37878.823852  11267.231833     36.031158
PC07 -11979.738348  23579.596696 -32549.113844    -80.040401
PC08 -24761.341776  24279.608068  23798.448762   -588.209955
PC09  -6914.646692  41588.164002  -4087.823125    859.112802
PC10   3383.747520  30499.815451 -28521.471503   -169.016096
PC11   9367.564539 -26199.537254  -2472.159580   -670.516229
PC12  17172.256730 -16516.081787  14594.626895    545.488517
PC13 -10094.526967  25952.487632  31640.150705    684.990092
PC14    404.820836 -20612.803655 -18814.348978   -225.989991
PC16 -12815.578317  39499.582107   7943.895335   -593.909450
PC19   8090.332775  23757.414981  12200.871005    573.935656
PC20  -7849.335949  14923.905938  22236.889874   -855.782309
PC21  19759.892789   3200.465515 -19426.913431   -692.268212
PC22  19712.277537  19027.396610  -5230.929218   -771.331031
PC23 -20304.502469  -9304.600045  16743.239227   -885.420248
PC24  19275.718078 -13446.736682  15067.332331   -721.886107
PC25  -1720.680149 -16097.059123  22731.438518   -783.544680
PC26  27618.929819  -4092.143368   -486.665869    858.786046
PC27 -17999.473371   6758.678116 -20245.297342    411.979238
PC28 -10824.342318 -13379.100239 -21966.768207   -160.920946
PC29  -1648.602115  25660.321814  10832.475957    294.374324
PC30 -13911.294996  23161.990939  -7013.102399    386.600370
PC32 -19818.725366  -3085.545573  19411.071841   -904.909293
PC33  -8154.697825 -23725.543574 -12241.291038   -807.674978
PC34  13713.056029 -23418.695109   6461.010693   -837.131019
PC35  11194.033761  13260.875919  21857.630190   -617.997051
PC36   1050.472053  16147.211522 -22703.237183   -886.854591
PC37 -27715.807324   2944.165038   1227.868820   -903.422268
PC39  -8673.550870  40905.423862   5872.657446     23.514648
PC40    787.241689  27340.511220 -32003.013046     88.727822
PC43   2011.965826 -25777.106259 -10483.687088   -406.857094
PC44  17839.974466  -7070.026243  20247.463122   -180.166128
PC46 -18635.259040  13666.164707 -15603.537630 999999.999999
PC60      0.000000      0.000000      0.000000 999999.999999
PE01  18936.062071  16865.885209 -15259.613931   -956.823985
PE02 -19009.602012 -16846.207953  15199.128313    167.290000
PE03 -12153.141693 -25389.182749   9178.743554   -351.316710
PE04  17842.257947   8041.065489 -22206.547411   -622.677010
PE05    743.005749 -28060.834828  -9403.067378   -339.692667
PE07 -13099.686008  14325.912305  22343.007012   -445.912552
PE08 -17766.326326  -7686.891948  22393.480100   6109.699840
PE09  12814.684922 -14528.532508 -22386.329151   5905.953247
PE11  23128.413544 -18098.918466   3675.853645   6069.027178
PE12  21558.849346  -1875.853765  20192.820776   5567.475383
PE13 -23138.578088  18021.223828  -3974.208648    404.231111
PE14 -19120.630752 -10379.877761 -24283.606898  -1182.710943
PE15 -21577.135899   2155.910606 -20139.135006    849.403078
PE18  13970.145246   6138.488440  17664.300194  -1291.967988
PE19  10923.292848  26552.418723  -7200.458025     97.617633
PE21  -1228.170125  16755.542513 -24362.589403   -625.515487
PE24  21598.458267  -6530.886702  19165.316979   -517.780556
PE25   1407.970765 -16722.458222  24397.749444   -517.857611
PE26 -10667.841054  23235.175839  14906.336906   2638.174928
PE27 -21197.319395   6906.239104 -19457.851499    118.106348
PE30 -28522.624398  -7454.811229  -2601.723225   3523.134348
PE31  28603.778136   6921.176276   3183.986097   -474.682668
PE33   7341.127394  14965.513174  24463.616245   -462.676377
PE36  11114.149087 -23288.077381 -14505.741182    497.367202
PG01   6570.671275 -17719.686660 -18760.279735     33.903723
PG02 -21443.081049  15566.654288   2209.060289   -526.727983
PG03  -4877.824215 -18218.658973 -18823.767192   -320.313934
PG04    541.107259 -26494.827670   1423.121042   -143.001066
PG05 -15731.049385   7390.724923  19981.813701    -22.883277
PG06 -23472.937018   3785.305956 -11822.067208   -331.681651
PG07 -11275.497230 -11372.389161  21570.501063   -388.841312
PG08   6412.555338 -24004.151724   9016.744480    -50.689275
PG09  -8482.380767 -21961.694124  12220.074381   -297.084818
PG10  23866.186614  11225.960698  -4058.087396   -474.218637
PG11   9901.958333 -24003.913568  -6882.770334   -143.011399
PG12   1737.283747  17789.418598 -19928.165061     57.003946
PG13 -12993.612658  17715.267627  14717.087322     52.617908
PG15  -3669.847595  24853.719932   7675.370270   -198.443934
PG16  15006.396232  -6397.460982  20834.695402   -219.446286
PG17 -13872.210802  -5713.131141 -21493.708300    336.759740
PG18  11851.011986  10496.124674  21322.837074    303.469641
PG19      0.000000      0.000000      0.000000 999999.999999
PG20  20289.657931  15315.403693   8048.908017    526.477648
PG21  20752.228041 -15849.036430  -3098.780768     55.432953
PG22   3146.103170 -15795.003395 -20940.678227   -745.898952
PG23  20241.502737  16247.080382   5649.506298     81.777648
PG24  -8694.013788  19364.908079 -15938.328680    -19.514711
PG25  13912.986255  18962.655858 -12833.507717      1.992542
PG26  23086.678574   2044.473837  13151.253822    291.666363
PG27  12248.051346 -15312.284806  17604.692210   -413.444582
PG28 -22612.653256 -12470.873650  -5250.939258    670.203839
PG29   4528.483262  24031.719720  10268.429836   -210.985022
PG30 -19738.995774  -4317.005101  17396.922914   -315.957848
PG31  24505.963665  -4822.734283  -9740.514856    -73.551578
PG32  14948.259282   4828.456241 -21346.510758    355.229769
PJ01 -25296.311219  22987.638019  29646.381253   -341.766016
PJ02 -31056.375988  15147.421810 -19642.125804     -4.807229
PJ03 -23525.411867  31682.326784 -10207.424032     -1.771194
PJ07 -25366.031903  33665.998354     24.840207      0.063543
PR01 -14058.026668 -20711.401797   4936.580641     68.720562
PR02 -13425.170416  -4025.663979  21331.109527    448.980074
PR03  -4589.972783  13206.644730  21382.047410     23.395971
PR04   6857.141223  22702.299221   9423.275762     57.212988
PR05  14330.597759  19591.173931  -7877.281205     58.905425
PR07   4224.495190 -13631.564269 -21101.472581    -40.642160
PR08  -6844.057184 -22713.336681  -9305.825018    -55.037323
PR09  25329.785006   -468.050784   2659.385411      1.123958
PR11  -3387.544700 -11168.412002  22707.545202    -40.359182
PR12 -19573.284472  -7637.216756  14484.764593    170.050185
PR13 -25397.668839    413.549070  -2367.017005    -44.913395
PR14 -16117.348643   8066.085464 -18039.428012     56.359456
PR15   2303.718356  11006.222645 -22868.322883    106.998922
PR16  20362.953236   7033.566969 -13771.492261     -7.053255
PR17 -15137.253484  20052.644796  -4250.017959    364.418121
PR18  -7009.178858  21156.262161  12461.075372     51.998646
PR19   4202.503375  11506.882887  22370.685230   -114.470413
PR20  15094.236230  -6824.537561  19391.316974   -423.631255
PR21  14906.607366 -20475.296451   3200.270556   -157.520119
PR22   6279.738844 -20661.217114 -13523.030788    -76.572983
PR23  -9251.615503  -4865.111539 -23275.739023    336.972972
PR24 -15559.559295   7439.751487 -18767.740008     16.050619
PR26  12968.342622  -1977.494804  21894.117873   -363.068155
EOF
